[{"OBJECT_NAME":"STARLINK-31732","OBJECT_ID":"2024-117J","EPOCH":"2026-03-09T04:17:54.074976","MEAN_MOTION":15.30189924,"ECCENTRICITY":0.00014165,"INCLINATION":53.1616,"RA_OF_ASC_NODE":39.1116,"ARG_OF_PERICENTER":78.7129,"MEAN_ANOMALY":281.403,"EPHEMERIS_TYPE":0,"CLASSIFICATION_TYPE":"U","NORAD_CAT_ID":60099,"ELEMENT_SET_NO":999,"REV_AT_EPOCH":9681,"BSTAR":-9.614943e-6,"MEAN_MOTION_DOT":-6.44e-6,"MEAN_MOTION_DDOT":0},{"OBJECT_NAME":"CZ-6A DEB","OBJECT_ID":"2022-151SD","EPOCH":"2026-03-09T21:25:15.700512","MEAN_MOTION":15.24469357,"ECCENTRICITY":0.00248717,"INCLINATION":98.6538,"RA_OF_ASC_NODE":157.5128,"ARG_OF_PERICENTER":174.047,"MEAN_ANOMALY":186.1065,"EPHEMERIS_TYPE":0,"CLASSIFICATION_TYPE":"U","NORAD_CAT_ID":54940,"ELEMENT_SET_NO":999,"REV_AT_EPOCH":17680,"BSTAR":0.0087519903,"MEAN_MOTION_DOT":0.00223015,"MEAN_MOTION_DDOT":0}]
